[{"OBJECT_NAME":"ONEWEB-0184","OBJECT_ID":"2021-031B","EPOCH":"2026-04-15T06:41:22.770528","MEAN_MOTION":13.14501775,"ECCENTRICITY":0.0002347,"INCLINATION":87.8941,"RA_OF_ASC_NODE":302.2508,"ARG_OF_PERICENTER":73.3387,"MEAN_ANOMALY":286.8,"EPHEMERIS_TYPE":0,"CLASSIFICATION_TYPE":"U","NORAD_CAT_ID":48211,"ELEMENT_SET_NO":999,"REV_AT_EPOCH":24002,"BSTAR":-0.00019107,"MEAN_MOTION_DOT":-5.8e-07,"MEAN_MOTION_DDOT":0.0},{"OBJECT_NAME":"ONEWEB-0179","OBJECT_ID":"2021-031C","EPOCH":"2026-04-15T05:07:02.382528","MEAN_MOTION":13.72322518,"ECCENTRICITY":0.0003795,"INCLINATION":87.8928,"RA_OF_ASC_NODE":301.8455,"ARG_OF_PERICENTER":106.579,"MEAN_ANOMALY":253.579,"EPHEMERIS_TYPE":0,"CLASSIFICATION_TYPE":"U","NORAD_CAT_ID":48212,"ELEMENT_SET_NO":999,"REV_AT_EPOCH":24016,"BSTAR":0.1086,"MEAN_MOTION_DOT":0.00100289,"MEAN_MOTION_DDOT":0.0},{"OBJECT_NAME":"ONEWEB-0180","OBJECT_ID":"2021-031D","EPOCH":"2026-04-15T06:45:56.903904","MEAN_MOTION":13.14501195,"ECCENTRICITY":0.0001615,"INCLINATION":87.8931,"RA_OF_ASC_NODE":302.2511,"ARG_OF_PERICENTER":77.8795,"MEAN_ANOMALY":282.2516,"EPHEMERIS_TYPE":0,"CLASSIFICATION_TYPE":"U","NORAD_CAT_ID":48213,"ELEMENT_SET_NO":999,"REV_AT_EPOCH":23995,"BSTAR":-0.00018825,"MEAN_MOTION_DOT":-5.7e-07,"MEAN_MOTION_DDOT":0.0},{"OBJECT_NAME":"ONEWEB-0218","OBJECT_ID":"2021-031E","EPOCH":"2026-04-15T01:49:05.600064","MEAN_MOTION":13.14502525,"ECCENTRICITY":0.0002171,"INCLINATION":87.893,"RA_OF_ASC_NODE":302.2905,"ARG_OF_PERICENTER":66.017,"MEAN_ANOMALY":294.1187,"EPHEMERIS_TYPE":0,"CLASSIFICATION_TYPE":"U","NORAD_CAT_ID":48214,"ELEMENT_SET_NO":999,"REV_AT_EPOCH":24008,"BSTAR":0.0006895299999999999,"MEAN_MOTION_DOT":2.68e-06,"MEAN_MOTION_DDOT":0.0},{"OBJECT_NAME":"ONEWEB-0209","OBJECT_ID":"2021-031F","EPOCH":"2026-04-15T07:01:56.082144","MEAN_MOTION":13.14501167,"ECCENTRICITY":0.0001525,"INCLINATION":87.8918,"RA_OF_ASC_NODE":302.2707,"ARG_OF_PERICENTER":85.1609,"MEAN_ANOMALY":274.9695,"EPHEMERIS_TYPE":0,"CLASSIFICATION_TYPE":"U","NORAD_CAT_ID":48215,"ELEMENT_SET_NO":999,"REV_AT_EPOCH":24011,"BSTAR":0.00035274,"MEAN_MOTION_DOT":1.44e-06,"MEAN_MOTION_DDOT":0.0},{"OBJECT_NAME":"ONEWEB-0198","OBJECT_ID":"2021-031G","EPOCH":"2026-04-15T06:39:17.729856","MEAN_MOTION":13.14502503,"ECCENTRICITY":0.0001672,"INCLINATION":87.8921,"RA_OF_ASC_NODE":302.2742,"ARG_OF_PERICENTER":73.8641,"MEAN_ANOMALY":286.2673,"EPHEMERIS_TYPE":0,"CLASSIFICATION_TYPE":"U","NORAD_CAT_ID":48216,"ELEMENT_SET_NO":999,"REV_AT_EPOCH":24022,"BSTAR":-0.00024975,"MEAN_MOTION_DOT":-8e-07,"MEAN_MOTION_DDOT":0.0},{"OBJECT_NAME":"ONEWEB-0189","OBJECT_ID":"2021-031H","EPOCH":"2026-04-15T06:57:21.925440","MEAN_MOTION":13.14501715,"ECCENTRICITY":0.0001693,"INCLINATION":87.8931,"RA_OF_ASC_NODE":302.251,"ARG_OF_PERICENTER":77.4609,"MEAN_ANOMALY":282.671,"EPHEMERIS_TYPE":0,"CLASSIFICATION_TYPE":"U","NORAD_CAT_ID":48217,"ELEMENT_SET_NO":999,"REV_AT_EPOCH":23996,"BSTAR":0.00015848000000000001,"MEAN_MOTION_DOT":7.2e-07,"MEAN_MOTION_DDOT":0.0},{"OBJECT_NAME":"ONEWEB-0196","OBJECT_ID":"2021-031J","EPOCH":"2026-04-15T06:25:24.057120","MEAN_MOTION":13.14503271,"ECCENTRICITY":0.0001639,"INCLINATION":87.8927,"RA_OF_ASC_NODE":302.2653,"ARG_OF_PERICENTER":83.9558,"MEAN_ANOMALY":276.1759,"EPHEMERIS_TYPE":0,"CLASSIFICATION_TYPE":"U","NORAD_CAT_ID":48218,"ELEMENT_SET_NO":999,"REV_AT_EPOCH":23996,"BSTAR":-0.00045579999999999997,"MEAN_MOTION_DOT":-1.56e-06,"MEAN_MOTION_DDOT":0.0},{"OBJECT_NAME":"ONEWEB-0183","OBJECT_ID":"2021-031K","EPOCH":"2026-04-15T05:48:51.359040","MEAN_MOTION":13.14502081,"ECCENTRICITY":0.0001576,"INCLINATION":87.8927,"RA_OF_ASC_NODE":302.2699,"ARG_OF_PERICENTER":94.0594,"MEAN_ANOMALY":266.0716,"EPHEMERIS_TYPE":0,"CLASSIFICATION_TYPE":"U","NORAD_CAT_ID":48219,"ELEMENT_SET_NO":999,"REV_AT_EPOCH":24005,"BSTAR":0.00033,"MEAN_MOTION_DOT":1.35e-06,"MEAN_MOTION_DDOT":0.0},{"OBJECT_NAME":"ONEWEB-0185","OBJECT_ID":"2021-031L","EPOCH":"2026-04-15T06:26:32.353728","MEAN_MOTION":13.1450669,"ECCENTRICITY":8.55e-05,"INCLINATION":87.894,"RA_OF_ASC_NODE":302.2522,"ARG_OF_PERICENTER":93.314,"MEAN_ANOMALY":266.8088,"EPHEMERIS_TYPE":0,"CLASSIFICATION_TYPE":"U","NORAD_CAT_ID":48220,"ELEMENT_SET_NO":999,"REV_AT_EPOCH":23998,"BSTAR":-0.0035328,"MEAN_MOTION_DOT":-1.297e-05,"MEAN_MOTION_DDOT":0.0},{"OBJECT_NAME":"ONEWEB-0187","OBJECT_ID":"2021-031M","EPOCH":"2026-04-15T05:57:46.003968","MEAN_MOTION":13.14497394,"ECCENTRICITY":0.0001473,"INCLINATION":87.8919,"RA_OF_ASC_NODE":302.2832,"ARG_OF_PERICENTER":82.5911,"MEAN_ANOMALY":277.5386,"EPHEMERIS_TYPE":0,"CLASSIFICATION_TYPE":"U","NORAD_CAT_ID":48221,"ELEMENT_SET_NO":999,"REV_AT_EPOCH":23999,"BSTAR":-6.8847e-05,"MEAN_MOTION_DOT":-1.3e-07,"MEAN_MOTION_DDOT":0.0},{"OBJECT_NAME":"ONEWEB-0192","OBJECT_ID":"2021-031N","EPOCH":"2026-04-15T01:35:23.167104","MEAN_MOTION":13.14501699,"ECCENTRICITY":0.0001738,"INCLINATION":87.8916,"RA_OF_ASC_NODE":302.3084,"ARG_OF_PERICENTER":86.0108,"MEAN_ANOMALY":274.1221,"EPHEMERIS_TYPE":0,"CLASSIFICATION_TYPE":"U","NORAD_CAT_ID":48222,"ELEMENT_SET_NO":999,"REV_AT_EPOCH":23988,"BSTAR":0.0006991,"MEAN_MOTION_DOT":2.72e-06,"MEAN_MOTION_DDOT":0.0},{"OBJECT_NAME":"ONEWEB-0219","OBJECT_ID":"2021-031P","EPOCH":"2026-04-15T06:34:31.746720","MEAN_MOTION":13.14501944,"ECCENTRICITY":0.0001467,"INCLINATION":87.8927,"RA_OF_ASC_NODE":302.2556,"ARG_OF_PERICENTER":85.6632,"MEAN_ANOMALY":274.4666,"EPHEMERIS_TYPE":0,"CLASSIFICATION_TYPE":"U","NORAD_CAT_ID":48223,"ELEMENT_SET_NO":999,"REV_AT_EPOCH":24011,"BSTAR":-0.00064168,"MEAN_MOTION_DOT":-2.25e-06,"MEAN_MOTION_DDOT":0.0},{"OBJECT_NAME":"ONEWEB-0202","OBJECT_ID":"2021-031Q","EPOCH":"2026-04-15T06:07:07.591872","MEAN_MOTION":13.14504012,"ECCENTRICITY":0.0002007,"INCLINATION":87.893,"RA_OF_ASC_NODE":302.2688,"ARG_OF_PERICENTER":69.5522,"MEAN_ANOMALY":290.5824,"EPHEMERIS_TYPE":0,"CLASSIFICATION_TYPE":"U","NORAD_CAT_ID":48224,"ELEMENT_SET_NO":999,"REV_AT_EPOCH":24009,"BSTAR":-0.00026028,"MEAN_MOTION_DOT":-8.4e-07,"MEAN_MOTION_DDOT":0.0},{"OBJECT_NAME":"ONEWEB-0204","OBJECT_ID":"2021-031R","EPOCH":"2026-04-15T06:56:13.628832","MEAN_MOTION":13.14502438,"ECCENTRICITY":0.0001486,"INCLINATION":87.8931,"RA_OF_ASC_NODE":302.2571,"ARG_OF_PERICENTER":97.3599,"MEAN_ANOMALY":262.7699,"EPHEMERIS_TYPE":0,"CLASSIFICATION_TYPE":"U","NORAD_CAT_ID":48225,"ELEMENT_SET_NO":999,"REV_AT_EPOCH":23999,"BSTAR":0.00022322,"MEAN_MOTION_DOT":9.6e-07,"MEAN_MOTION_DDOT":0.0},{"OBJECT_NAME":"ONEWEB-0205","OBJECT_ID":"2021-031S","EPOCH":"2026-04-15T06:20:49.402752","MEAN_MOTION":13.14502953,"ECCENTRICITY":0.0001544,"INCLINATION":87.8926,"RA_OF_ASC_NODE":302.2523,"ARG_OF_PERICENTER":86.1644,"MEAN_ANOMALY":273.9662,"EPHEMERIS_TYPE":0,"CLASSIFICATION_TYPE":"U","NORAD_CAT_ID":48226,"ELEMENT_SET_NO":999,"REV_AT_EPOCH":24000,"BSTAR":-0.00037676,"MEAN_MOTION_DOT":-1.27e-06,"MEAN_MOTION_DDOT":0.0}]