ONEWEB-0184             
1 48211U 21031B   26105.27873577 -.00000058  00000+0 -19107-3 0  9998
2 48211  87.8941 302.2508 0002347  73.3387 286.8000 13.14501775240028
ONEWEB-0179             
1 48212U 21031C   26105.21322202  .00100289  00000+0  10860+0 0  9995
2 48212  87.8928 301.8455 0003795 106.5790 253.5790 13.72322518240167
ONEWEB-0180             
1 48213U 21031D   26105.28190861 -.00000057  00000+0 -18825-3 0  9994
2 48213  87.8931 302.2511 0001615  77.8795 282.2516 13.14501195239950
ONEWEB-0218             
1 48214U 21031E   26105.07575926  .00000268  00000+0  68953-3 0  9990
2 48214  87.8930 302.2905 0002171  66.0170 294.1187 13.14502525240082
ONEWEB-0209             
1 48215U 21031F   26105.29301021  .00000144  00000+0  35274-3 0  9991
2 48215  87.8918 302.2707 0001525  85.1609 274.9695 13.14501167240115
ONEWEB-0198             
1 48216U 21031G   26105.27728854 -.00000080  00000+0 -24975-3 0  9994
2 48216  87.8921 302.2742 0001672  73.8641 286.2673 13.14502503240221
ONEWEB-0189             
1 48217U 21031H   26105.28983710  .00000072  00000+0  15848-3 0  9998
2 48217  87.8931 302.2510 0001693  77.4609 282.6710 13.14501715239968
ONEWEB-0196             
1 48218U 21031J   26105.26763955 -.00000156  00000+0 -45580-3 0  9995
2 48218  87.8927 302.2653 0001639  83.9558 276.1759 13.14503271239967
ONEWEB-0183             
1 48219U 21031K   26105.24226110  .00000135  00000+0  33000-3 0  9990
2 48219  87.8927 302.2699 0001576  94.0594 266.0716 13.14502081240052
ONEWEB-0185             
1 48220U 21031L   26105.26843002 -.00001297  00000+0 -35328-2 0  9995
2 48220  87.8940 302.2522 0000855  93.3140 266.8088 13.14506690239982
ONEWEB-0187             
1 48221U 21031M   26105.24844912 -.00000013  00000+0 -68847-4 0  9994
2 48221  87.8919 302.2832 0001473  82.5911 277.5386 13.14497394239997
ONEWEB-0192             
1 48222U 21031N   26105.06624036  .00000272  00000+0  69910-3 0  9994
2 48222  87.8916 302.3084 0001738  86.0108 274.1221 13.14501699239889
ONEWEB-0219             
1 48223U 21031P   26105.27397855 -.00000225  00000+0 -64168-3 0  9994
2 48223  87.8927 302.2556 0001467  85.6632 274.4666 13.14501944240118
ONEWEB-0202             
1 48224U 21031Q   26105.25494898 -.00000084  00000+0 -26028-3 0  9994
2 48224  87.8930 302.2688 0002007  69.5522 290.5824 13.14504012240090
ONEWEB-0204             
1 48225U 21031R   26105.28904663  .00000096  00000+0  22322-3 0  9998
2 48225  87.8931 302.2571 0001486  97.3599 262.7699 13.14502438239994
ONEWEB-0205             
1 48226U 21031S   26105.26446068 -.00000127  00000+0 -37676-3 0  9992
2 48226  87.8926 302.2523 0001544  86.1644 273.9662 13.14502953240008
